STARLINK-36102          
1 66849U 25281B   25346.16668980 -.01174037  40555-3 -33956-2 0  9990
2 66849  43.0016 125.9507 0001608 277.0582 186.9007 15.92107752  1319
STARLINK-36105          
1 66850U 25281C   25346.16668980 -.01181815  41069-3 -34090-2 0  9995
2 66850  43.0014 125.9436 0001510 272.7255 194.0991 15.92160400  1312
STARLINK-36094          
1 66851U 25281D   25346.16668980 -.01177053  40784-3 -33873-2 0  9996
2 66851  43.0014 125.9381 0001576 277.5829 191.4365 15.92203978  1318
STARLINK-35992          
1 66852U 25281E   25346.16668980 -.01180978  41051-3 -33908-2 0  9994
2 66852  43.0017 125.9327 0001654 278.0570 193.0777 15.92248362  1319
STARLINK-35986          
1 66853U 25281F   25346.16668980 -.01192403  41805-3 -34128-2 0  9993
2 66853  43.0015 125.9249 0001725 275.4205 198.7673 15.92310549  1310
STARLINK-36087          
1 66854U 25281G   25346.16668980 -.01200433  42345-3 -34258-2 0  9991
2 66854  43.0016 125.9173 0001774 270.1040 206.9983 15.92367743  1315
STARLINK-36090          
1 66855U 25281H   25346.16668980 -.01199496  42304-3 -34146-2 0  9999
2 66855  43.0016 125.9114 0001758 271.3561 208.1026 15.92415053  1303
STARLINK-36072          
1 66856U 25281J   25346.16668980 -.01220148  43672-3 -34625-2 0  9990
2 66856  43.0016 125.9046 0001569 276.4047 205.7866 15.92479022  1315
STARLINK-36083          
1 66857U 25281K   25346.16668980 -.01220176  43695-3 -34539-2 0  9991
2 66857  43.0015 125.8990 0001718 276.1439 208.3010 15.92526796  1311
STARLINK-35118          
1 66858U 25281L   25346.16668980 -.01227108  44174-3 -34635-2 0  9994
2 66858  43.0017 125.8926 0001713 272.1778 214.6407 15.92582892  1308
STARLINK-35646          
1 66859U 25281M   25346.16668980 -.01216139  43475-3 -34234-2 0  9995
2 66859  43.0018 125.8860 0001825 272.6157 216.8651 15.92631521  1317
STARLINK-35987          
1 66860U 25281N   25346.16668980 -.01239221  45130-3 -34335-2 0  9996
2 66860  43.0018 125.8512 0001786 269.6965 233.5621 15.92937201  1319
