CCSDS_OMM_VERS = 2.0
CREATION_DATE  = 
ORIGINATOR     = 

OBJECT_NAME    = STARLINK-36102
OBJECT_ID      = 2025-281B
CENTER_NAME    = EARTH
REF_FRAME      = TEME
TIME_SYSTEM    = UTC
MEAN_ELEMENT_THEORY = SGP/SGP4

EPOCH          = 2025-12-12T04:00:01.998720
MEAN_MOTION    = 15.92107752
ECCENTRICITY   = .0001608
INCLINATION    = 43.0016
RA_OF_ASC_NODE = 125.9507
ARG_OF_PERICENTER = 277.0582
MEAN_ANOMALY   = 186.9007

EPHEMERIS_TYPE = 0
CLASSIFICATION_TYPE = U
NORAD_CAT_ID   = 66849
ELEMENT_SET_NO = 999
REV_AT_EPOCH   = 131
BSTAR          = -.33956E-2
MEAN_MOTION_DOT = -.1174037E-1
MEAN_MOTION_DDOT = .40555E-3

CCSDS_OMM_VERS = 2.0
CREATION_DATE  = 
ORIGINATOR     = 

OBJECT_NAME    = STARLINK-36105
OBJECT_ID      = 2025-281C
CENTER_NAME    = EARTH
REF_FRAME      = TEME
TIME_SYSTEM    = UTC
MEAN_ELEMENT_THEORY = SGP/SGP4

EPOCH          = 2025-12-12T04:00:01.998720
MEAN_MOTION    = 15.92160400
ECCENTRICITY   = .000151
INCLINATION    = 43.0014
RA_OF_ASC_NODE = 125.9436
ARG_OF_PERICENTER = 272.7255
MEAN_ANOMALY   = 194.0991

EPHEMERIS_TYPE = 0
CLASSIFICATION_TYPE = U
NORAD_CAT_ID   = 66850
ELEMENT_SET_NO = 999
REV_AT_EPOCH   = 131
BSTAR          = -.3409E-2
MEAN_MOTION_DOT = -.1181815E-1
MEAN_MOTION_DDOT = .41069E-3

CCSDS_OMM_VERS = 2.0
CREATION_DATE  = 
ORIGINATOR     = 

OBJECT_NAME    = STARLINK-36094
OBJECT_ID      = 2025-281D
CENTER_NAME    = EARTH
REF_FRAME      = TEME
TIME_SYSTEM    = UTC
MEAN_ELEMENT_THEORY = SGP/SGP4

EPOCH          = 2025-12-12T04:00:01.998720
MEAN_MOTION    = 15.92203978
ECCENTRICITY   = .0001576
INCLINATION    = 43.0014
RA_OF_ASC_NODE = 125.9381
ARG_OF_PERICENTER = 277.5829
MEAN_ANOMALY   = 191.4365

EPHEMERIS_TYPE = 0
CLASSIFICATION_TYPE = U
NORAD_CAT_ID   = 66851
ELEMENT_SET_NO = 999
REV_AT_EPOCH   = 131
BSTAR          = -.33873E-2
MEAN_MOTION_DOT = -.1177053E-1
MEAN_MOTION_DDOT = .40784E-3

CCSDS_OMM_VERS = 2.0
CREATION_DATE  = 
ORIGINATOR     = 

OBJECT_NAME    = STARLINK-35992
OBJECT_ID      = 2025-281E
CENTER_NAME    = EARTH
REF_FRAME      = TEME
TIME_SYSTEM    = UTC
MEAN_ELEMENT_THEORY = SGP/SGP4

EPOCH          = 2025-12-12T04:00:01.998720
MEAN_MOTION    = 15.92248362
ECCENTRICITY   = .0001654
INCLINATION    = 43.0017
RA_OF_ASC_NODE = 125.9327
ARG_OF_PERICENTER = 278.0570
MEAN_ANOMALY   = 193.0777

EPHEMERIS_TYPE = 0
CLASSIFICATION_TYPE = U
NORAD_CAT_ID   = 66852
ELEMENT_SET_NO = 999
REV_AT_EPOCH   = 131
BSTAR          = -.33908E-2
MEAN_MOTION_DOT = -.1180978E-1
MEAN_MOTION_DDOT = .41051E-3

CCSDS_OMM_VERS = 2.0
CREATION_DATE  = 
ORIGINATOR     = 

OBJECT_NAME    = STARLINK-35986
OBJECT_ID      = 2025-281F
CENTER_NAME    = EARTH
REF_FRAME      = TEME
TIME_SYSTEM    = UTC
MEAN_ELEMENT_THEORY = SGP/SGP4

EPOCH          = 2025-12-12T04:00:01.998720
MEAN_MOTION    = 15.92310549
ECCENTRICITY   = .0001725
INCLINATION    = 43.0015
RA_OF_ASC_NODE = 125.9249
ARG_OF_PERICENTER = 275.4205
MEAN_ANOMALY   = 198.7673

EPHEMERIS_TYPE = 0
CLASSIFICATION_TYPE = U
NORAD_CAT_ID   = 66853
ELEMENT_SET_NO = 999
REV_AT_EPOCH   = 131
BSTAR          = -.34128E-2
MEAN_MOTION_DOT = -.1192403E-1
MEAN_MOTION_DDOT = .41805E-3

CCSDS_OMM_VERS = 2.0
CREATION_DATE  = 
ORIGINATOR     = 

OBJECT_NAME    = STARLINK-36087
OBJECT_ID      = 2025-281G
CENTER_NAME    = EARTH
REF_FRAME      = TEME
TIME_SYSTEM    = UTC
MEAN_ELEMENT_THEORY = SGP/SGP4

EPOCH          = 2025-12-12T04:00:01.998720
MEAN_MOTION    = 15.92367743
ECCENTRICITY   = .0001774
INCLINATION    = 43.0016
RA_OF_ASC_NODE = 125.9173
ARG_OF_PERICENTER = 270.1040
MEAN_ANOMALY   = 206.9983

EPHEMERIS_TYPE = 0
CLASSIFICATION_TYPE = U
NORAD_CAT_ID   = 66854
ELEMENT_SET_NO = 999
REV_AT_EPOCH   = 131
BSTAR          = -.34258E-2
MEAN_MOTION_DOT = -.1200433E-1
MEAN_MOTION_DDOT = .42345E-3

CCSDS_OMM_VERS = 2.0
CREATION_DATE  = 
ORIGINATOR     = 

OBJECT_NAME    = STARLINK-36090
OBJECT_ID      = 2025-281H
CENTER_NAME    = EARTH
REF_FRAME      = TEME
TIME_SYSTEM    = UTC
MEAN_ELEMENT_THEORY = SGP/SGP4

EPOCH          = 2025-12-12T04:00:01.998720
MEAN_MOTION    = 15.92415053
ECCENTRICITY   = .0001758
INCLINATION    = 43.0016
RA_OF_ASC_NODE = 125.9114
ARG_OF_PERICENTER = 271.3561
MEAN_ANOMALY   = 208.1026

EPHEMERIS_TYPE = 0
CLASSIFICATION_TYPE = U
NORAD_CAT_ID   = 66855
ELEMENT_SET_NO = 999
REV_AT_EPOCH   = 130
BSTAR          = -.34146E-2
MEAN_MOTION_DOT = -.1199496E-1
MEAN_MOTION_DDOT = .42304E-3

CCSDS_OMM_VERS = 2.0
CREATION_DATE  = 
ORIGINATOR     = 

OBJECT_NAME    = STARLINK-36072
OBJECT_ID      = 2025-281J
CENTER_NAME    = EARTH
REF_FRAME      = TEME
TIME_SYSTEM    = UTC
MEAN_ELEMENT_THEORY = SGP/SGP4

EPOCH          = 2025-12-12T04:00:01.998720
MEAN_MOTION    = 15.92479022
ECCENTRICITY   = .0001569
INCLINATION    = 43.0016
RA_OF_ASC_NODE = 125.9046
ARG_OF_PERICENTER = 276.4047
MEAN_ANOMALY   = 205.7866

EPHEMERIS_TYPE = 0
CLASSIFICATION_TYPE = U
NORAD_CAT_ID   = 66856
ELEMENT_SET_NO = 999
REV_AT_EPOCH   = 131
BSTAR          = -.34625E-2
MEAN_MOTION_DOT = -.1220148E-1
MEAN_MOTION_DDOT = .43672E-3

CCSDS_OMM_VERS = 2.0
CREATION_DATE  = 
ORIGINATOR     = 

OBJECT_NAME    = STARLINK-36083
OBJECT_ID      = 2025-281K
CENTER_NAME    = EARTH
REF_FRAME      = TEME
TIME_SYSTEM    = UTC
MEAN_ELEMENT_THEORY = SGP/SGP4

EPOCH          = 2025-12-12T04:00:01.998720
MEAN_MOTION    = 15.92526796
ECCENTRICITY   = .0001718
INCLINATION    = 43.0015
RA_OF_ASC_NODE = 125.8990
ARG_OF_PERICENTER = 276.1439
MEAN_ANOMALY   = 208.3010

EPHEMERIS_TYPE = 0
CLASSIFICATION_TYPE = U
NORAD_CAT_ID   = 66857
ELEMENT_SET_NO = 999
REV_AT_EPOCH   = 131
BSTAR          = -.34539E-2
MEAN_MOTION_DOT = -.1220176E-1
MEAN_MOTION_DDOT = .43695E-3

CCSDS_OMM_VERS = 2.0
CREATION_DATE  = 
ORIGINATOR     = 

OBJECT_NAME    = STARLINK-35118
OBJECT_ID      = 2025-281L
CENTER_NAME    = EARTH
REF_FRAME      = TEME
TIME_SYSTEM    = UTC
MEAN_ELEMENT_THEORY = SGP/SGP4

EPOCH          = 2025-12-12T04:00:01.998720
MEAN_MOTION    = 15.92582892
ECCENTRICITY   = .0001713
INCLINATION    = 43.0017
RA_OF_ASC_NODE = 125.8926
ARG_OF_PERICENTER = 272.1778
MEAN_ANOMALY   = 214.6407

EPHEMERIS_TYPE = 0
CLASSIFICATION_TYPE = U
NORAD_CAT_ID   = 66858
ELEMENT_SET_NO = 999
REV_AT_EPOCH   = 130
BSTAR          = -.34635E-2
MEAN_MOTION_DOT = -.1227108E-1
MEAN_MOTION_DDOT = .44174E-3

CCSDS_OMM_VERS = 2.0
CREATION_DATE  = 
ORIGINATOR     = 

OBJECT_NAME    = STARLINK-35646
OBJECT_ID      = 2025-281M
CENTER_NAME    = EARTH
REF_FRAME      = TEME
TIME_SYSTEM    = UTC
MEAN_ELEMENT_THEORY = SGP/SGP4

EPOCH          = 2025-12-12T04:00:01.998720
MEAN_MOTION    = 15.92631521
ECCENTRICITY   = .0001825
INCLINATION    = 43.0018
RA_OF_ASC_NODE = 125.8860
ARG_OF_PERICENTER = 272.6157
MEAN_ANOMALY   = 216.8651

EPHEMERIS_TYPE = 0
CLASSIFICATION_TYPE = U
NORAD_CAT_ID   = 66859
ELEMENT_SET_NO = 999
REV_AT_EPOCH   = 131
BSTAR          = -.34234E-2
MEAN_MOTION_DOT = -.1216139E-1
MEAN_MOTION_DDOT = .43475E-3

CCSDS_OMM_VERS = 2.0
CREATION_DATE  = 
ORIGINATOR     = 

OBJECT_NAME    = STARLINK-35987
OBJECT_ID      = 2025-281N
CENTER_NAME    = EARTH
REF_FRAME      = TEME
TIME_SYSTEM    = UTC
MEAN_ELEMENT_THEORY = SGP/SGP4

EPOCH          = 2025-12-12T04:00:01.998720
MEAN_MOTION    = 15.92937201
ECCENTRICITY   = .0001786
INCLINATION    = 43.0018
RA_OF_ASC_NODE = 125.8512
ARG_OF_PERICENTER = 269.6965
MEAN_ANOMALY   = 233.5621

EPHEMERIS_TYPE = 0
CLASSIFICATION_TYPE = U
NORAD_CAT_ID   = 66860
ELEMENT_SET_NO = 999
REV_AT_EPOCH   = 131
BSTAR          = -.34335E-2
MEAN_MOTION_DOT = -.1239221E-1
MEAN_MOTION_DDOT = .4513E-3

